COMMENT,ORIGINATOR,NORAD_CAT_ID,OBJECT_NAME,OBJECT_TYPE,CLASSIFICATION_TYPE,INTLDES,EPOCH,EPOCH_MICROSECONDS,MEAN_MOTION,ECCENTRICITY,INCLINATION,RA_OF_ASC_NODE,ARG_OF_PERICENTER,MEAN_ANOMALY,EPHEMERIS_TYPE,ELEMENT_SET_NO,REV_AT_EPOCH,BSTAR,MEAN_MOTION_DOT,MEAN_MOTION_DDOT,FILE,TLE_LINE0,TLE_LINE1,TLE_LINE2,OBJECT_ID,OBJECT_NUMBER,SEMIMAJOR_AXIS,PERIOD,APOGEE,PERIGEE,DECAYED
"GENERATED VIA SPACETRACK.ORG API","18 SPCS","48886","SPACEBEE-102","PAYLOAD","U","21059H","2022-08-02 08:09:17","512128","15.16349635","0.0007049","97.5607","343.714","315.2451","44.8212","0","999","6088","0.00018887","0.00003597","0","3527697","0 SPACEBEE-102","1 48886U 21059H   22214.33978602  .00003597  00000-0  18887-3 0  9999","2 48886  97.5607 343.7140 0007049 315.2451  44.8212 15.16349635 60889","2021-059H","48886","6895.021","94.965","521.747","512.026","0"
"GENERATED VIA SPACETRACK.ORG API","18 SPCS","48886","SPACEBEE-102","PAYLOAD","U","21059H","2022-08-02 19:14:28","1472","15.16354019","0.0007034","97.5606","344.1743","313.1995","46.865","0","999","6095","0.00020615","0.00003933","0","3527804","0 SPACEBEE-102","1 48886U 21059H   22214.80171298  .00003933  00000-0  20615-3 0  9993","2 48886  97.5606 344.1743 0007034 313.1995  46.8650 15.16354019 60954","2021-059H","48886","6895.008","94.965","521.723","512.023","0"
"GENERATED VIA SPACETRACK.ORG API","18 SPCS","48886","SPACEBEE-102","PAYLOAD","U","21059H","2022-08-03 07:54:39","861792","15.16358964","0.0007023","97.5605","344.7003","310.9963","49.0662","0","999","6103","0.00022444","0.00004289","0","3528364","0 SPACEBEE-102","1 48886U 21059H   22215.32962803  .00004289  00000-0  22444-3 0  9998","2 48886  97.5605 344.7003 0007023 310.9963  49.0662 15.16358964 61037","2021-059H","48886","6894.993","94.964","521.700","512.016","0"
"GENERATED VIA SPACETRACK.ORG API","18 SPCS","48886","SPACEBEE-102","PAYLOAD","U","21059H","2022-08-03 18:59:50","164512","15.16362411","0.0006995","97.5605","345.1606","309.0636","50.9974","0","999","6110","0.00022302","0.00004262","0","3528530","0 SPACEBEE-102","1 48886U 21059H   22215.79155283  .00004262  00000-0  22302-3 0  9999","2 48886  97.5605 345.1606 0006995 309.0636  50.9974 15.16362411 61101","2021-059H","48886","6894.982","94.964","521.671","512.024","0"
"GENERATED VIA SPACETRACK.ORG API","18 SPCS","48886","SPACEBEE-102","PAYLOAD","U","21059H","2022-08-04 07:40:01","778592","15.16367123","0.0006985","97.5603","345.6866","306.8543","53.2048","0","999","6118","0.00023179","0.00004432","0","3529060","0 SPACEBEE-102","1 48886U 21059H   22216.31946503  .00004432  00000-0  23179-3 0  9993","2 48886  97.5603 345.6866 0006985 306.8543  53.2048 15.16367123 61184","2021-059H","48886","6894.968","94.964","521.649","512.017","0"
"GENERATED VIA SPACETRACK.ORG API","18 SPCS","48886","SPACEBEE-102","PAYLOAD","U","21059H","2022-08-04 20:20:13","244928","15.16372833","0.0006932","97.5603","346.2126","304.7818","55.2762","0","999","6126","0.0002547","0.00004878","0","3529215","0 SPACEBEE-102","1 48886U 21059H   22216.84737552  .00004878  00000-0  25470-3 0  9993","2 48886  97.5603 346.2126 0006932 304.7818  55.2762 15.16372833 61262","2021-059H","48886","6894.951","94.963","521.595","512.036","0"
"GENERATED VIA SPACETRACK.ORG API","18 SPCS","48886","SPACEBEE-102","PAYLOAD","U","21059H","2022-08-05 07:25:23","140704","15.16378103","0.0006913","97.5603","346.6728","302.9332","57.1236","0","999","6133","0.00027576","0.00005288","0","3529733","0 SPACEBEE-102","1 48886U 21059H   22217.30929561  .00005288  00000-0  27576-3 0  9993","2 48886  97.5603 346.6728 0006913 302.9332  57.1236 15.16378103 61335","2021-059H","48886","6894.935","94.963","521.566","512.033","0"
"GENERATED VIA SPACETRACK.ORG API","18 SPCS","48886","SPACEBEE-102","PAYLOAD","U","21059H","2022-08-05 20:05:34","286496","15.16383978","0.0006886","97.5603","347.1988","300.7732","59.2823","0","999","6141","0.00028651","0.00005498","0","3530042","0 SPACEBEE-102","1 48886U 21059H   22217.83720239  .00005498  00000-0  28651-3 0  9990","2 48886  97.5603 347.1988 0006886 300.7732  59.2823 15.16383978 61418","2021-059H","48886","6894.917","94.963","521.530","512.034","0"
"GENERATED VIA SPACETRACK.ORG API","18 SPCS","48886","SPACEBEE-102","PAYLOAD","U","21059H","2022-08-05 21:40:35","663520","15.16384701","0.0006881","97.5603","347.2646","300.4967","59.5585","0","999","6142","0.00028706","0.00005509","0","3530232","0 SPACEBEE-102","1 48886U 21059H   22217.90319055  .00005509  00000-0  28706-3 0  9992","2 48886  97.5603 347.2646 0006881 300.4967  59.5585 15.16384701 61426","2021-059H","48886","6894.915","94.963","521.524","512.036","0"
"GENERATED VIA SPACETRACK.ORG API","18 SPCS","48886","SPACEBEE-102","PAYLOAD","U","21059H","2022-08-06 08:45:45","238752","15.16389514","0.0006865","97.5602","347.7248","298.5939","61.4603","0","999","6149","0.00028117","0.00005395","0","3530579","0 SPACEBEE-102","1 48886U 21059H   22218.36510693  .00005395  00000-0  28117-3 0  9993","2 48886  97.5602 347.7248 0006865 298.5939  61.4603 15.16389514 61493","2021-059H","48886","6894.900","94.962","521.499","512.032","0"
"GENERATED VIA SPACETRACK.ORG API","18 SPCS","48886","SPACEBEE-102","PAYLOAD","U","21059H","2022-08-06 21:25:56","31168","15.16395709","0.0006842","97.5602","348.2507","296.4634","63.5896","0","999","6157","0.00029019","0.00005572","0","3530813","0 SPACEBEE-102","1 48886U 21059H   22218.89300962  .00005572  00000-0  29019-3 0  9996","2 48886  97.5602 348.2507 0006842 296.4634  63.5896 15.16395709 61570","2021-059H","48886","6894.882","94.962","521.464","512.029","0"
"GENERATED VIA SPACETRACK.ORG API","18 SPCS","48886","SPACEBEE-102","PAYLOAD","U","21059H","2022-08-07 02:11:00","29184","15.16397988","0.0006836","97.5602","348.4479","295.6666","64.386","0","999","6160","0.00029397","0.00005645","0","3530996","0 SPACEBEE-102","1 48886U 21059H   22219.09097256  .00005645  00000-0  29397-3 0  9998","2 48886  97.5602 348.4479 0006836 295.6666  64.3860 15.16397988 61604","2021-059H","48886","6894.875","94.962","521.453","512.026","0"
"GENERATED VIA SPACETRACK.ORG API","18 SPCS","48886","SPACEBEE-102","PAYLOAD","U","21059H","2022-08-07 08:31:05","323872","15.16400532","0.000684","97.5602","348.7109","294.5657","65.4863","0","999","6164","0.00028285","0.0000543","0","3531314","0 SPACEBEE-102","1 48886U 21059H   22219.35492273  .00005430  00000-0  28285-3 0  9992","2 48886  97.5602 348.7109 0006840 294.5657  65.4863 15.16400532 61649","2021-059H","48886","6894.867","94.962","521.448","512.016","0"
"GENERATED VIA SPACETRACK.ORG API","18 SPCS","48886","SPACEBEE-102","PAYLOAD","U","21059H","2022-08-07 21:11:15","685152","15.16411052","0.0006814","97.5602","349.2368","292.5174","67.5337","0","999","6172","0.00038213","0.00007363","0","3531552","0 SPACEBEE-102","1 48886U 21059H   22219.88282043  .00007363  00000-0  38213-3 0  9991","2 48886  97.5602 349.2368 0006814 292.5174  67.5337 15.16411052 61722","2021-059H","48886","6894.835","94.961","521.398","512.002","0"
"GENERATED VIA SPACETRACK.ORG API","18 SPCS","48886","SPACEBEE-102","PAYLOAD","U","21059H","2022-08-08 08:16:24","551040","15.16420286","0.00068","97.5603","349.697","290.7018","69.3486","0","999","6179","0.0004546","0.00008777","0","3532008","0 SPACEBEE-102","1 48886U 21059H   22220.34472860  .00008777  00000-0  45460-3 0  9994","2 48886  97.5603 349.6970 0006800 290.7018  69.3486 15.16420286 61799","2021-059H","48886","6894.807","94.960","521.361","511.984","0"
"GENERATED VIA SPACETRACK.ORG API","18 SPCS","48886","SPACEBEE-102","PAYLOAD","U","21059H","2022-08-08 08:16:24","551040","15.16420286","0.00068","97.5603","349.697","290.7018","69.3486","0","999","6179","0.0004546","0.00008777","0","3532128","0 SPACEBEE-102","1 48886U 21059H   22220.34472860  .00008777  00000-0  45460-3 0  9994","2 48886  97.5603 349.6970 0006800 290.7018  69.3486 15.16420286 61799","2021-059H","48886","6894.807","94.960","521.361","511.984","0"
"GENERATED VIA SPACETRACK.ORG API","18 SPCS","48886","SPACEBEE-102","PAYLOAD","U","21059H","2022-08-08 19:21:33","231168","15.16425956","0.0006801","97.5604","350.1573","288.7156","71.3338","0","999","6186","0.000424","0.00008182","0","3532305","0 SPACEBEE-102","1 48886U 21059H   22220.80663462  .00008182  00000-0  42400-3 0  9996","2 48886  97.5604 350.1573 0006801 288.7156  71.3338 15.16425956 61863","2021-059H","48886","6894.790","94.960","521.344","511.966","0"
"GENERATED VIA SPACETRACK.ORG API","18 SPCS","48886","SPACEBEE-102","PAYLOAD","U","21059H","2022-08-09 12:46:46","365312","15.16439096","0.0006828","97.5605","350.8804","285.4569","74.5909","0","999","6197","0.00042967","0.00008296","0","3532882","0 SPACEBEE-102","1 48886U 21059H   22221.53248108  .00008296  00000-0  42967-3 0  9997","2 48886  97.5605 350.8804 0006828 285.4569  74.5909 15.16439096 61970","2021-059H","48886","6894.750","94.959","521.323","511.907","0"
"GENERATED VIA SPACETRACK.ORG API","18 SPCS","48886","SPACEBEE-102","PAYLOAD","U","21059H","2022-08-09 14:21:47","545344","15.16439875","0.0006824","97.5605","350.9462","285.1893","74.8585","0","999","6198","0.00042096","0.00008126","0","3533046","0 SPACEBEE-102","1 48886U 21059H   22221.59846696  .00008126  00000-0  42096-3 0  9994","2 48886  97.5605 350.9462 0006824 285.1893  74.8585 15.16439875 61983","2021-059H","48886","6894.748","94.959","521.318","511.908","0"
"GENERATED VIA SPACETRACK.ORG API","18 SPCS","48886","SPACEBEE-102","PAYLOAD","U","21059H","2022-08-09 14:21:47","545344","15.16439875","0.0006824","97.5605","350.9462","285.1893","74.8585","0","999","6198","0.00042096","0.00008126","0","3533123","0 SPACEBEE-102","1 48886U 21059H   22221.59846696  .00008126  00000-0  42096-3 0  9994","2 48886  97.5605 350.9462 0006824 285.1893  74.8585 15.16439875 61983","2021-059H","48886","6894.748","94.959","521.318","511.908","0"
